[{"OBJECT_NAME":"STARLINK-30073","OBJECT_ID":"2023-079T","EPOCH":"2026-03-09T22:00:01.999584","MEAN_MOTION":15.27575359,"ECCENTRICITY":0.00020534,"INCLINATION":43.0005,"RA_OF_ASC_NODE":291.0924,"ARG_OF_PERICENTER":288.9142,"MEAN_ANOMALY":240.4544,"EPHEMERIS_TYPE":0,"CLASSIFICATION_TYPE":"U","NORAD_CAT_ID":56840,"ELEMENT_SET_NO":999,"REV_AT_EPOCH":574,"BSTAR":0.00066101027,"MEAN_MOTION_DOT":0.0001797,"MEAN_MOTION_DDOT":0},{"OBJECT_NAME":"STARLINK-34066","OBJECT_ID":"2025-095V","EPOCH":"2026-03-09T08:17:16.405728","MEAN_MOTION":15.27642769,"ECCENTRICITY":0.00034442,"INCLINATION":43.0035,"RA_OF_ASC_NODE":178.2952,"ARG_OF_PERICENTER":288.9698,"MEAN_ANOMALY":71.078,"EPHEMERIS_TYPE":0,"CLASSIFICATION_TYPE":"U","NORAD_CAT_ID":63909,"ELEMENT_SET_NO":999,"REV_AT_EPOCH":4772,"BSTAR":0.0016071899,"MEAN_MOTION_DOT":0.0004432,"MEAN_MOTION_DDOT":0}]
